#cP2009  5 11  0  0  0.00000000      96 ORBIT IGS05 HLM  IGS
## 1531  86400.00000000   900.00000000 54962 0.0000000000000
+   32   G01G02G03G04G05G06G07G08G09G10G11G12G13G14G15G16G17
+        G18G19G20G21G22G23G24G25G26G27G28G29G30G31G32  0  0
+          0  0  0  0  0  0  0  0  0  0  0  0  0  0  0  0  0
+          0  0  0  0  0  0  0  0  0  0  0  0  0  0  0  0  0
+          0  0  0  0  0  0  0  0  0  0  0  0  0  0  0  0  0
++         5  2  2  2  3  2  2  3  2  2  2  3  2  3  3  3  2
++         3  3  3  2  3  3  2  3  2  3  3  3  2  3  2  0  0
++         0  0  0  0  0  0  0  0  0  0  0  0  0  0  0  0  0
++         0  0  0  0  0  0  0  0  0  0  0  0  0  0  0  0  0
++         0  0  0  0  0  0  0  0  0  0  0  0  0  0  0  0  0
%c G  cc GPS ccc cccc cccc cccc cccc ccccc ccccc ccccc ccccc
%c cc cc ccc ccc cccc cccc cccc cccc ccccc ccccc ccccc ccccc
%f  1.2500000  1.025000000  0.00000000000  0.000000000000000
%f  0.0000000  0.000000000  0.00000000000  0.000000000000000
%i    0    0    0    0      0      0      0      0         0
%i    0    0    0    0      0      0      0      0         0
/* FINAL ORBIT COMBINATION FROM WEIGHTED AVERAGE OF:        
/* cod emr esa gfz grg jpl mit ngs sio                      
/* REFERENCED TO IGS TIME (IGST) AND TO WEIGHTED MEAN POLE: 
/* PCV:IGS05_1525 OL/AL:FES2004  NONE     Y  ORB:CMB CLK:CMB
*  2009  5 11  6 45  0.00000000
PG01 -19746.762711  15812.988229   7839.666482 999999.999999
PG02 -13297.829067 -22580.775174  -5614.046097    154.035210  3  9  6 111       
PG03  21231.093104  10535.459190 -12646.485984    391.418755  3  7  6 141       
PG04  -4846.033240 -25213.337261   5871.228368    -86.339106  7  9  5 126       
PG05 -19399.855084   9578.178625  15019.879793    -72.482684  1  9  6 126       
PG06  16850.591818  13416.100821 -15383.205041    117.872409  4  7  6 126       
PG07  10269.713231 -13110.452669 -20683.953625     19.039223  7  8  6 100       
PG08   1890.076234 -22817.278718 -13064.900474 999999.999999
PG09 -16541.895203  -5560.531409  19400.531208     55.224257  6  6  7 133       
PG10 -11226.165493 -10460.875537 -21834.567813    -15.850463  7  8    114       
PG11  18953.989835   1780.925430  18435.558188     -2.130619  4  7  5 118       
PG12 -19991.000634   6763.735043  16123.635790   -282.796192  5  7  3  97       
PG13  19031.432410  -7218.776525 -17192.371592    296.772569  7  7  5 115       
PG14  -1173.343014  14693.906472  22215.452617   -112.488471  7 10  4 136       
PG15 -25115.098593  -7217.122579  -4910.911463   -290.449654  5  7  7 135       
PG16   6812.354020  14420.146233 -21133.338607     52.052152  9  8  7 127       
PG17   2914.936293 -14999.261354  21791.352483     58.390977  3  5  6 128       
PG18 -16498.024651  20520.730787   1333.426534    -57.965762  2  8  6 116       
PG19  25475.583656   7656.959498  -2186.950059     25.999576  8 11  5  94       
PG20  20285.862707  -9105.917759  14366.568876     82.948525  5  8  8 126       
PG21  -8693.441482  16356.278965 -18547.138677     14.612031  4  8  7 134       
PG22  -8831.241778  22453.427181  11178.632542    199.872420  6 11  7 141       
PG23  25738.928282   -636.777350  -7146.390983    389.933018  5  7  7 141       
PG24 -15194.483664   2763.478227 -21461.966134    187.946933  6  8  6 114       
PG25  13501.857645  -6207.683921 -21666.774566    406.134924  6  8  8 148       
PG26 -26289.838890  -3111.737751   3970.693766     60.441136  2  9  6 105       
PG27 -17590.037196 -12551.392195  16110.427472     48.070154 12 11  8  87       
PG28  10608.992041 -22366.382580   9607.515755    -24.704327  5  9  5 132       
PG29 -20421.369990   7070.580604 -15306.948229     18.856013  8  9  5 160       
PG30 -18946.630910  17023.396321   7003.606783    145.404224  5  6  4 101       
PG31   6474.512478  25339.081688   4381.589990    -59.955351  7  8  5 112       
PG32  18195.411467    796.815217  19639.775626    263.103289  8  7  5 116       
*  2009  5 11  7  0  0.00000000
PG01 -19303.377602  14821.424657  10434.352253 999999.999999
PG02 -13236.310036 -23120.239872  -2875.373067    154.035707  3  9  7 119       
PG03  19708.925137  10754.310763 -14766.255736    391.423458  3  7  7 132       
PG04  -4223.802870 -24548.996587   8541.355562    -86.353007  7  9  5 119       
PG05 -18587.085092   7863.957473  16899.478187    -72.499972  1  9  4 141       
PG06  14938.201714  13474.710776 -17175.619511    117.886225  4  7  6 129       
PG07  11257.487964 -10915.336156 -21442.194637     19.038642  6  8  5  85       
PG08   2580.114279 -21331.906598 -15318.107577   -202.523659 11  9  9 177       
PG09 -17375.001156  -7660.617601  17959.358762     55.225730  6  6  7 151       
PG10  -9664.924132 -12350.995127 -21560.796930    -15.850649  7  8    126       
PG11  19969.222197   3615.036102  17092.621433     -2.131852  4  7  5 117       
PG12 -18930.118359   5133.918417  17924.060173   -282.791863  5  6  3 113       
PG13  20805.247940  -6779.367693 -15183.461887    296.773383  7  7  4 117       
PG14  -3647.193179  14274.956223  22210.257808   -112.483028  8 10  4 133       
PG15 -24371.555451  -7386.500459  -7632.293531   -290.453169  6  8  7 140       
PG16   5260.448516  16230.185291 -20226.641265     52.049315  8  8  7 139       
PG17   5353.128103 -14615.999045  21570.711724     58.392471  3  5  5 131       
PG18 -16738.441208  20282.507202  -1507.758072    -57.962960  2  7  6 124       
PG19  25020.500335   7813.320849  -4981.815441     25.998584  8 11  5 103       
PG20  19417.409150  -7532.993191  16329.692579     82.947645  5  8  8 120       
PG21  -9688.748718  14312.435142 -19747.675688     14.610736  4  9  7 140       
PG22  -9758.843975  23143.579994   8680.536557    199.871548  6 10  7 134       
PG23  26354.948708   -353.061507  -4389.115626    389.932926  5  7  7 145       
PG24 -15979.130987    425.214033 -21041.362479    187.950488  6  8  7 102       
PG25  14670.720568  -3953.903656 -21420.583379    406.152592  6  8  7 142       
PG26 -26607.074270  -3298.781420   1103.759592     60.442572  2  9  6  95       
PG27 -18168.228786 -14065.043359  13985.891255     48.072521 13  9 10  83       
PG28  11360.744337 -22916.987994   6936.352366    -24.704584  6  9  5 123       
PG29 -22018.314165   6620.888141 -13154.914098     18.859484  7  9  6 166       
PG30 -18598.432662  16047.073574   9624.686460    145.406315  5  6  3  73       
PG31   6023.818581  24835.707085   7167.774733    -59.955812  6  7  5 115       
PG32  16765.412254   2523.828398  20779.172860    263.098488  7  7  5 115       
*  2009  5 11  7 15  0.00000000
PG01 -18754.737282  13570.699694  12847.814423 999999.999999
PG02 -13062.550407 -23386.603050    -88.508439    154.036095  3  9  7 103       
PG03  17977.732048  11054.326742 -16640.646509    391.429624  3  8  7 124       
PG04  -3442.220443 -23648.504805  11060.652610    -86.367022  7  9  6 108       
PG05 -17764.638800   5936.934873  18480.352935    -72.516864  1  9  4 139       
PG06  12842.933103  13619.670362 -18668.833204    117.900212  3  7  6 122       
PG07  12388.495877  -8718.461070 -21831.646168     19.038036  5  8  3 104       
PG08   3443.084373 -19665.603207 -17302.561009   -202.525109 11  9  9 172       
PG09 -18230.563685  -9544.228389  16193.882743     55.227446  7  6  7 145       
PG10  -8231.709591 -14280.665528 -20920.236028    -15.849504  7  8  2 122       
PG11  20954.612569   5270.767808  15454.623983     -2.133158  4  8  6 118       
PG12 -17852.714605   3297.290501  19416.398864   -282.786667  5  6  4 112       
PG13  22362.103320  -6472.188407 -12915.416962    296.774175  7  7  4 113       
PG14  -6120.203602  13999.177731  21826.867833   -112.477784  8  9  4 133       
PG15 -23337.764866  -7577.542916 -10222.685094   -290.456696  6  9  6 133       
PG16   3876.153183  18020.263194 -18968.003330     52.046348  8  9  7 134       
PG17   7764.300433 -14363.672568  20980.585670     58.394293  3  5  3 135       
PG18 -16802.958387  19793.273672  -4322.316194    -57.959734  2  6  6 131       
PG19  24266.975158   7949.901299  -7692.084605     25.997528  8 12  6  95       
PG20  18515.244081  -5744.927755  18008.789184     82.946737  5  7  7 120       
PG21 -10824.929184  12214.610059 -20595.977909     14.608726  4  9  7 138       
PG22 -10482.299945  23643.653257   6033.299754    199.870471  7 10  7 133       
PG23  26671.835330   -126.204219  -1557.643708    389.933152  4  7  6 141       
PG24 -16853.535197  -1809.605983 -20253.115611    187.952246  7  8  7 104       
PG25  15930.545471  -1806.311818 -20793.169803    406.170487  6  8  7 149       
PG26 -26614.590201  -3423.577579  -1781.654976     60.443845  3  8  6 117       
PG27 -18705.947995 -15332.468235  11629.637832     48.075458 13  8 11  57       
PG28  11905.943253 -23253.924413   4145.064876    -24.704801  6  9  4 130       
PG29 -23379.569148   6279.099645 -10774.666199     18.862937  7  8  6 164       
PG30 -18149.035643  14805.264637  12076.734401    145.409642  5  6  3  83       
PG31   5412.262625  24080.136925   9830.363844    -59.956643  5  7  6 140       
PG32  15364.108539   4405.573296  21571.228121    263.093611  7  6  5 107       
EOF
